TIANMU-1 10             
1 57402U 23101D   26087.87316325  .00008412  00000+0  29806-3 0  9995
2 57402  97.2717 140.5975 0006488  83.7343 276.4637 15.29330179149366
FENGYUN 3F              
1 57490U 23111A   26087.85477427  .00000071  00000+0  53679-4 0  9991
2 57490  98.6888 159.3427 0000899  80.7713 279.3565 14.19923826137460
ARKTIKA-M 2             
1 58584U 23198A   26082.52027795  .00000173  00000+0  00000+0 0  9997
2 58584  63.2220 163.8934 6881218 267.7008  18.8555  2.00606565 16600
TIANMU-1 11             
1 58645U 23205A   26087.82214304  .00007025  00000+0  27477-3 0  9990
2 58645  97.3526 110.6636 0007141 292.4356  67.6126 15.26128454125261
TIANMU-1 12             
1 58646U 23205B   26087.85544779  .00007163  00000+0  28073-3 0  9992
2 58646  97.3514 110.4702 0005348 270.5832  89.4794 15.26063059125255
TIANMU-1 13             
1 58647U 23205C   26087.82013797  .00007147  00000+0  27968-3 0  9995
2 58647  97.3542 110.6829 0005831 246.0352 114.0277 15.26112681125247
TIANMU-1 14             
1 58648U 23205D   26087.80502037  .00007463  00000+0  29207-3 0  9993
2 58648  97.3477 109.9196 0006493 252.5121 107.5408 15.26087365125247
TIANMU-1 19             
1 58660U 23208A   26087.82675539  .00011609  00000+0  39935-3 0  9996
2 58660  97.4399 203.8414 0004152 227.6938 132.3951 15.30225334125032
TIANMU-1 20             
1 58661U 23208B   26087.86159130  .00011867  00000+0  39335-3 0  9995
2 58661  97.4340 204.4293 0006092 242.6304 117.4318 15.31412609125125
TIANMU-1 21             
1 58662U 23208C   26087.83457685  .00013447  00000+0  41739-3 0  9996
2 58662  97.4395 206.7505 0006146 236.2439 123.8218 15.33488754125244
TIANMU-1 22             
1 58663U 23208D   26087.84935586  .00010599  00000+0  36956-3 0  9999
2 58663  97.4395 203.8623 0002441 255.3784 104.7186 15.29813326125045
TIANMU-1 15             
1 58700U 24004A   26087.86820348  .00007749  00000+0  30315-3 0  9993
2 58700  97.4679 274.0854 0005632 271.1295  88.9298 15.26103297123520
TIANMU-1 16             
1 58701U 24004B   26087.85124723  .00007824  00000+0  30574-3 0  9998
2 58701  97.4622 273.3780 0004063 275.1307  84.9467 15.26140030123524
TIANMU-1 17             
1 58702U 24004C   26087.83313916  .00007437  00000+0  29049-3 0  9996
2 58702  97.4653 273.8225 0003274 276.4712  83.6153 15.26174612123515
TIANMU-1 18             
1 58703U 24004D   26087.81901400  .00007272  00000+0  28464-3 0  9993
2 58703  97.4669 274.0228 0002645 275.1305  84.9631 15.26114170123512
INSAT-3DS               
1 58990U 24033A   26087.84622469 -.00000175  00000+0  00000+0 0  9999
2 58990   0.0166 129.4382 0002056 236.6330 206.8975  1.00271581 46261
METEOR-M2 4             
1 59051U 24039A   26087.85264132  .00000035  00000+0  35191-4 0  9992
2 59051  98.6938  48.1946 0007939  48.1841 312.0014 14.22420155107848
