[{"OBJECT_NAME":"TIANMU-1 10","OBJECT_ID":"2023-101D","EPOCH":"2026-03-28T20:57:21.304800","MEAN_MOTION":15.29330179,"ECCENTRICITY":0.0006488,"INCLINATION":97.2717,"RA_OF_ASC_NODE":140.5975,"ARG_OF_PERICENTER":83.7343,"MEAN_ANOMALY":276.4637,"EPHEMERIS_TYPE":0,"CLASSIFICATION_TYPE":"U","NORAD_CAT_ID":57402,"ELEMENT_SET_NO":999,"REV_AT_EPOCH":14936,"BSTAR":0.00029806,"MEAN_MOTION_DOT":8.412e-5,"MEAN_MOTION_DDOT":0},{"OBJECT_NAME":"FENGYUN 3F","OBJECT_ID":"2023-111A","EPOCH":"2026-03-28T20:30:52.496928","MEAN_MOTION":14.19923826,"ECCENTRICITY":8.99e-5,"INCLINATION":98.6888,"RA_OF_ASC_NODE":159.3427,"ARG_OF_PERICENTER":80.7713,"MEAN_ANOMALY":279.3565,"EPHEMERIS_TYPE":0,"CLASSIFICATION_TYPE":"U","NORAD_CAT_ID":57490,"ELEMENT_SET_NO":999,"REV_AT_EPOCH":13746,"BSTAR":5.3679e-5,"MEAN_MOTION_DOT":7.1e-7,"MEAN_MOTION_DDOT":0},{"OBJECT_NAME":"ARKTIKA-M 2","OBJECT_ID":"2023-198A","EPOCH":"2026-03-23T12:29:12.014880","MEAN_MOTION":2.00606565,"ECCENTRICITY":0.68812187,"INCLINATION":63.222,"RA_OF_ASC_NODE":163.8934,"ARG_OF_PERICENTER":267.7008,"MEAN_ANOMALY":18.8555,"EPHEMERIS_TYPE":0,"CLASSIFICATION_TYPE":"U","NORAD_CAT_ID":58584,"ELEMENT_SET_NO":999,"REV_AT_EPOCH":1660,"BSTAR":0,"MEAN_MOTION_DOT":1.73e-6,"MEAN_MOTION_DDOT":0},{"OBJECT_NAME":"TIANMU-1 11","OBJECT_ID":"2023-205A","EPOCH":"2026-03-28T19:43:53.158656","MEAN_MOTION":15.26128454,"ECCENTRICITY":0.0007141,"INCLINATION":97.3526,"RA_OF_ASC_NODE":110.6636,"ARG_OF_PERICENTER":292.4356,"MEAN_ANOMALY":67.6126,"EPHEMERIS_TYPE":0,"CLASSIFICATION_TYPE":"U","NORAD_CAT_ID":58645,"ELEMENT_SET_NO":999,"REV_AT_EPOCH":12526,"BSTAR":0.00027477,"MEAN_MOTION_DOT":7.025e-5,"MEAN_MOTION_DDOT":0},{"OBJECT_NAME":"TIANMU-1 12","OBJECT_ID":"2023-205B","EPOCH":"2026-03-28T20:31:50.689056","MEAN_MOTION":15.26063059,"ECCENTRICITY":0.0005348,"INCLINATION":97.3514,"RA_OF_ASC_NODE":110.4702,"ARG_OF_PERICENTER":270.5832,"MEAN_ANOMALY":89.4794,"EPHEMERIS_TYPE":0,"CLASSIFICATION_TYPE":"U","NORAD_CAT_ID":58646,"ELEMENT_SET_NO":999,"REV_AT_EPOCH":12525,"BSTAR":0.00028073,"MEAN_MOTION_DOT":7.163e-5,"MEAN_MOTION_DDOT":0},{"OBJECT_NAME":"TIANMU-1 13","OBJECT_ID":"2023-205C","EPOCH":"2026-03-28T19:40:59.920608","MEAN_MOTION":15.26112681,"ECCENTRICITY":0.0005831,"INCLINATION":97.3542,"RA_OF_ASC_NODE":110.6829,"ARG_OF_PERICENTER":246.0352,"MEAN_ANOMALY":114.0277,"EPHEMERIS_TYPE":0,"CLASSIFICATION_TYPE":"U","NORAD_CAT_ID":58647,"ELEMENT_SET_NO":999,"REV_AT_EPOCH":12524,"BSTAR":0.00027968,"MEAN_MOTION_DOT":7.147e-5,"MEAN_MOTION_DDOT":0},{"OBJECT_NAME":"TIANMU-1 14","OBJECT_ID":"2023-205D","EPOCH":"2026-03-28T19:19:13.759968","MEAN_MOTION":15.26087365,"ECCENTRICITY":0.0006493,"INCLINATION":97.3477,"RA_OF_ASC_NODE":109.9196,"ARG_OF_PERICENTER":252.5121,"MEAN_ANOMALY":107.5408,"EPHEMERIS_TYPE":0,"CLASSIFICATION_TYPE":"U","NORAD_CAT_ID":58648,"ELEMENT_SET_NO":999,"REV_AT_EPOCH":12524,"BSTAR":0.00029207,"MEAN_MOTION_DOT":7.463e-5,"MEAN_MOTION_DDOT":0},{"OBJECT_NAME":"TIANMU-1 19","OBJECT_ID":"2023-208A","EPOCH":"2026-03-28T19:50:31.665696","MEAN_MOTION":15.30225334,"ECCENTRICITY":0.0004152,"INCLINATION":97.4399,"RA_OF_ASC_NODE":203.8414,"ARG_OF_PERICENTER":227.6938,"MEAN_ANOMALY":132.3951,"EPHEMERIS_TYPE":0,"CLASSIFICATION_TYPE":"U","NORAD_CAT_ID":58660,"ELEMENT_SET_NO":999,"REV_AT_EPOCH":12503,"BSTAR":0.00039935,"MEAN_MOTION_DOT":0.00011609,"MEAN_MOTION_DDOT":0},{"OBJECT_NAME":"TIANMU-1 20","OBJECT_ID":"2023-208B","EPOCH":"2026-03-28T20:40:41.488320","MEAN_MOTION":15.31412609,"ECCENTRICITY":0.0006092,"INCLINATION":97.434,"RA_OF_ASC_NODE":204.4293,"ARG_OF_PERICENTER":242.6304,"MEAN_ANOMALY":117.4318,"EPHEMERIS_TYPE":0,"CLASSIFICATION_TYPE":"U","NORAD_CAT_ID":58661,"ELEMENT_SET_NO":999,"REV_AT_EPOCH":12512,"BSTAR":0.00039335,"MEAN_MOTION_DOT":0.00011867,"MEAN_MOTION_DDOT":0},{"OBJECT_NAME":"TIANMU-1 21","OBJECT_ID":"2023-208C","EPOCH":"2026-03-28T20:01:47.439840","MEAN_MOTION":15.33488754,"ECCENTRICITY":0.0006146,"INCLINATION":97.4395,"RA_OF_ASC_NODE":206.7505,"ARG_OF_PERICENTER":236.2439,"MEAN_ANOMALY":123.8218,"EPHEMERIS_TYPE":0,"CLASSIFICATION_TYPE":"U","NORAD_CAT_ID":58662,"ELEMENT_SET_NO":999,"REV_AT_EPOCH":12524,"BSTAR":0.00041739,"MEAN_MOTION_DOT":0.00013447,"MEAN_MOTION_DDOT":0},{"OBJECT_NAME":"TIANMU-1 22","OBJECT_ID":"2023-208D","EPOCH":"2026-03-28T20:23:04.346304","MEAN_MOTION":15.29813326,"ECCENTRICITY":0.0002441,"INCLINATION":97.4395,"RA_OF_ASC_NODE":203.8623,"ARG_OF_PERICENTER":255.3784,"MEAN_ANOMALY":104.7186,"EPHEMERIS_TYPE":0,"CLASSIFICATION_TYPE":"U","NORAD_CAT_ID":58663,"ELEMENT_SET_NO":999,"REV_AT_EPOCH":12504,"BSTAR":0.00036956,"MEAN_MOTION_DOT":0.00010599,"MEAN_MOTION_DDOT":0},{"OBJECT_NAME":"TIANMU-1 15","OBJECT_ID":"2024-004A","EPOCH":"2026-03-28T20:50:12.780672","MEAN_MOTION":15.26103297,"ECCENTRICITY":0.0005632,"INCLINATION":97.4679,"RA_OF_ASC_NODE":274.0854,"ARG_OF_PERICENTER":271.1295,"MEAN_ANOMALY":88.9298,"EPHEMERIS_TYPE":0,"CLASSIFICATION_TYPE":"U","NORAD_CAT_ID":58700,"ELEMENT_SET_NO":999,"REV_AT_EPOCH":12352,"BSTAR":0.00030315,"MEAN_MOTION_DOT":7.749e-5,"MEAN_MOTION_DDOT":0},{"OBJECT_NAME":"TIANMU-1 16","OBJECT_ID":"2024-004B","EPOCH":"2026-03-28T20:25:47.760672","MEAN_MOTION":15.2614003,"ECCENTRICITY":0.0004063,"INCLINATION":97.4622,"RA_OF_ASC_NODE":273.378,"ARG_OF_PERICENTER":275.1307,"MEAN_ANOMALY":84.9467,"EPHEMERIS_TYPE":0,"CLASSIFICATION_TYPE":"U","NORAD_CAT_ID":58701,"ELEMENT_SET_NO":999,"REV_AT_EPOCH":12352,"BSTAR":0.00030574,"MEAN_MOTION_DOT":7.824e-5,"MEAN_MOTION_DDOT":0},{"OBJECT_NAME":"TIANMU-1 17","OBJECT_ID":"2024-004C","EPOCH":"2026-03-28T19:59:43.223424","MEAN_MOTION":15.26174612,"ECCENTRICITY":0.0003274,"INCLINATION":97.4653,"RA_OF_ASC_NODE":273.8225,"ARG_OF_PERICENTER":276.4712,"MEAN_ANOMALY":83.6153,"EPHEMERIS_TYPE":0,"CLASSIFICATION_TYPE":"U","NORAD_CAT_ID":58702,"ELEMENT_SET_NO":999,"REV_AT_EPOCH":12351,"BSTAR":0.00029049,"MEAN_MOTION_DOT":7.437e-5,"MEAN_MOTION_DDOT":0},{"OBJECT_NAME":"TIANMU-1 18","OBJECT_ID":"2024-004D","EPOCH":"2026-03-28T19:39:22.809600","MEAN_MOTION":15.2611417,"ECCENTRICITY":0.0002645,"INCLINATION":97.4669,"RA_OF_ASC_NODE":274.0228,"ARG_OF_PERICENTER":275.1305,"MEAN_ANOMALY":84.9631,"EPHEMERIS_TYPE":0,"CLASSIFICATION_TYPE":"U","NORAD_CAT_ID":58703,"ELEMENT_SET_NO":999,"REV_AT_EPOCH":12351,"BSTAR":0.00028464,"MEAN_MOTION_DOT":7.272e-5,"MEAN_MOTION_DDOT":0},{"OBJECT_NAME":"INSAT-3DS","OBJECT_ID":"2024-033A","EPOCH":"2026-03-28T20:18:33.813216","MEAN_MOTION":1.00271581,"ECCENTRICITY":0.0002056,"INCLINATION":0.0166,"RA_OF_ASC_NODE":129.4382,"ARG_OF_PERICENTER":236.633,"MEAN_ANOMALY":206.8975,"EPHEMERIS_TYPE":0,"CLASSIFICATION_TYPE":"U","NORAD_CAT_ID":58990,"ELEMENT_SET_NO":999,"REV_AT_EPOCH":4626,"BSTAR":0,"MEAN_MOTION_DOT":-1.75e-6,"MEAN_MOTION_DDOT":0},{"OBJECT_NAME":"METEOR-M2 4","OBJECT_ID":"2024-039A","EPOCH":"2026-03-28T20:27:48.210048","MEAN_MOTION":14.22420155,"ECCENTRICITY":0.0007939,"INCLINATION":98.6938,"RA_OF_ASC_NODE":48.1946,"ARG_OF_PERICENTER":48.1841,"MEAN_ANOMALY":312.0014,"EPHEMERIS_TYPE":0,"CLASSIFICATION_TYPE":"U","NORAD_CAT_ID":59051,"ELEMENT_SET_NO":999,"REV_AT_EPOCH":10784,"BSTAR":3.5191e-5,"MEAN_MOTION_DOT":3.5e-7,"MEAN_MOTION_DDOT":0}]
